NORAD_CAT_ID,OBJECT_NAME,OBJECT_TYPE,EPOCH,MEAN_MOTION,ECCENTRICITY,INCLINATION,RA_OF_ASC_NODE,ARG_OF_PERICENTER,MEAN_ANOMALY,BSTAR,MEAN_MOTION_DOT,MEAN_MOTION_DDOT,TLE_LINE0,TLE_LINE1,TLE_LINE2,SEMIMAJOR_AXIS,PERIOD,APOGEE,PERIGEE,DECAYED
55925.0,STARLINK-5922,PAYLOAD,2024-06-24 21:59:51,14.98331351,0.000264,70.0003,74.6154,254.8188,105.2679,1.9156e-05,1.36e-06,0.0,0 STARLINK-5922,1 55925U 23037M   24176.91656769  .00000136  00000-0  19156-4 0  9996,2 55925  70.0003  74.6154 0002640 254.8188 105.2679 14.98331351 70200,6950.189,96.107,573.889,570.219,0.0
55925.0,STARLINK-5922,PAYLOAD,2024-06-25 02:48:15,14.98329888,0.0002685,70.0003,74.1106,258.6387,101.447,-9.5335e-07,-1.04e-06,0.0,0 STARLINK-5922,1 55925U 23037M   24177.11684929 -.00000104  00000-0 -95335-6 0  9990,2 55925  70.0003  74.1106 0002685 258.6387 101.4470 14.98329888 70236,6950.193,96.107,573.924,570.192,0.0
55925.0,STARLINK-5922,PAYLOAD,2024-06-25 20:25:44,14.98333812,0.0002849,70.0001,72.2593,261.307,98.7766,5.9884e-05,6.22e-06,0.0,0 STARLINK-5922,1 55925U 23037M   24177.85120429  .00000622  00000-0  59884-4 0  9991,2 55925  70.0001  72.2593 0002849 261.3070  98.7766 14.98333812 70682,6950.181,96.107,574.026,570.066,0.0
55925.0,STARLINK-5922,PAYLOAD,2024-06-25 22:01:52,14.98334067,0.0002843,70.0001,72.091,261.038,99.0457,6.2595e-05,6.54e-06,0.0,0 STARLINK-5922,1 55925U 23037M   24177.91796393  .00000654  00000-0  62595-4 0  9995,2 55925  70.0001  72.0910 0002843 261.0380  99.0457 14.98334067 70356,6950.18,96.107,574.021,570.069,0.0
55925.0,STARLINK-5922,PAYLOAD,2024-06-26 02:50:16,14.9833677,0.0002806,70.0002,71.5863,259.9695,100.1148,9.1902e-05,1.004e-05,0.0,0 STARLINK-5922,1 55925U 23037M   24178.11824085  .00001004  00000-0  91902-4 0  9992,2 55925  70.0002  71.5863 0002806 259.9695 100.1148 14.98336770 70389,6950.172,96.107,573.987,570.087,0.0
55925.0,STARLINK-5922,PAYLOAD,2024-06-27 02:52:17,14.98324565,0.0002673,70.0007,69.0624,255.7908,104.2955,-1.0274e-05,-2.16e-06,0.0,0 STARLINK-5922,1 55925U 23037M   24179.11965193 -.00000216  00000-0 -10274-4 0  9998,2 55925  70.0007  69.0624 0002673 255.7908 104.2955 14.98324565 70878,6950.21,96.107,573.932,570.217,0.0
55925.0,STARLINK-5922,PAYLOAD,2024-06-27 20:29:46,14.98333071,0.0002998,69.9999,67.2085,272.6646,87.417,-1.8318e-05,-3.12e-06,0.0,0 STARLINK-5922,1 55925U 23037M   24179.85400823 -.00000312  00000-0 -18318-4 0  9997,2 55925  69.9999  67.2085 0002998 272.6646  87.4170 14.98333071 70988,6950.183,96.107,574.132,569.965,0.0
55925.0,STARLINK-5922,PAYLOAD,2024-06-27 22:05:54,14.98333856,0.0002968,69.9998,67.0403,272.5716,87.5104,-3.5046e-06,-1.35e-06,0.0,0 STARLINK-5922,1 55925U 23037M   24179.92076732 -.00000135  00000-0 -35046-5 0  9994,2 55925  69.9998  67.0403 0002968 272.5716  87.5104 14.98333856 70656,6950.181,96.107,574.109,569.983,0.0
55925.0,STARLINK-5922,PAYLOAD,2024-06-28 09:18:50,14.98335568,0.0002723,70.0002,65.8622,272.2678,87.8169,-3.1831e-05,-4.73e-06,0.0,0 STARLINK-5922,1 55925U 23037M   24180.38808633 -.00000473  00000-0 -31831-4 0  9991,2 55925  70.0002  65.8622 0002723 272.2678  87.8169 14.98335568 70721,6950.176,96.107,573.933,570.148,0.0
55925.0,STARLINK-5922,PAYLOAD,2024-06-28 20:31:46,14.98333847,0.000267,70.0001,64.6831,272.9258,87.1595,8.9291e-05,9.73e-06,0.0,0 STARLINK-5922,1 55925U 23037M   24180.85540469  .00000973  00000-0  89291-4 0  9999,2 55925  70.0001  64.6831 0002670 272.9258  87.1595 14.98333847 71131,6950.181,96.107,573.902,570.19,0.0
55925.0,STARLINK-5922,PAYLOAD,2024-06-28 22:07:54,14.98334611,0.0002657,70.0002,64.5148,273.3507,86.7348,9.5945e-05,1.052e-05,0.0,0 STARLINK-5922,1 55925U 23037M   24180.92216399  .00001052  00000-0  95945-4 0  9991,2 55925  70.0002  64.5148 0002657 273.3507  86.7348 14.98334611 70803,6950.179,96.107,573.89,570.197,0.0
55925.0,STARLINK-5922,PAYLOAD,2024-06-29 01:20:10,14.98339195,0.0002625,70.0001,64.1785,271.4052,88.6806,0.00014552,1.644e-05,0.0,0 STARLINK-5922,1 55925U 23037M   24181.05567924  .00001644  00000-0  14552-3 0  9990,2 55925  70.0001  64.1785 0002625 271.4052  88.6806 14.98339195 71166,6950.164,96.106,573.854,570.205,0.0
55925.0,STARLINK-5922,PAYLOAD,2024-06-29 18:57:40,14.98322683,0.000328,69.9997,62.3289,259.9064,100.1725,-0.00012102,-1.536e-05,0.0,0 STARLINK-5922,1 55925U 23037M   24181.79005601 -.00001536  00000-0 -12102-3 0  9991,2 55925  69.9997  62.3289 0003280 259.9064 100.1725 14.98322683 71274,6950.216,96.107,574.36,569.801,0.0
55925.0,STARLINK-5922,PAYLOAD,2024-06-29 22:09:57,14.98319945,0.0003117,69.9996,61.9904,269.4087,90.6715,-0.00013409,-1.692e-05,0.0,0 STARLINK-5922,1 55925U 23037M   24181.92357966 -.00001692  00000-0 -13409-3 0  9994,2 55925  69.9996  61.9904 0003117 269.4087  90.6715 14.98319945 70955,6950.224,96.108,574.255,569.923,0.0
55925.0,STARLINK-5922,PAYLOAD,2024-06-30 02:58:23,14.98292227,0.0002764,69.9999,61.4851,270.3208,89.7634,-0.00040093,-4.869e-05,0.0,0 STARLINK-5922,1 55925U 23037M   24182.12388628 -.00004869  00000-0 -40093-3 0  9994,2 55925  69.9999  61.4851 0002764 270.3208  89.7634 14.98292227 71321,6950.31,96.109,574.096,570.254,0.0
55925.0,STARLINK-5922,PAYLOAD,2024-06-30 09:22:54,14.98312156,0.0004008,70.0002,60.8117,266.4757,93.5943,-0.00018017,-2.241e-05,0.0,0 STARLINK-5922,1 55925U 23037M   24182.39090748 -.00002241  00000-0 -18017-3 0  9999,2 55925  70.0002  60.8117 0004008 266.4757  93.5943 14.98312156 71369,6950.248,96.108,574.899,569.327,0.0
55925.0,STARLINK-5922,PAYLOAD,2024-06-30 15:48:01,14.97917312,0.0002254,69.9998,60.1399,123.7764,236.361,-0.0044287,-0.00051986,0.0,0 STARLINK-5922,1 55925U 23037M   24182.65835365 -.00051986  00000-0 -44287-2 0  9997,2 55925  69.9998  60.1399 0002254 123.7764 236.3610 14.97917312 71406,6951.469,96.133,574.901,571.768,0.0
55925.0,STARLINK-5922,PAYLOAD,2024-07-01 01:24:23,14.98289714,0.0002479,69.9987,59.129,253.5265,106.5622,-0.00015615,-1.954e-05,0.0,0 STARLINK-5922,1 55925U 23037M   24183.05860975 -.00001954  00000-0 -15615-3 0  9991,2 55925  69.9987  59.1290 0002479 253.5265 106.5622 14.98289714 71465,6950.317,96.11,573.905,570.459,0.0
55925.0,STARLINK-5922,PAYLOAD,2024-07-01 09:24:27,14.98728256,0.0004177,69.9988,58.2802,303.3937,56.6822,0.0045025,0.00054615,0.0,0 STARLINK-5922,1 55925U 23037M   24183.39198518  .00054615  00000-0  45025-2 0  9992,2 55925  69.9988  58.2802 0004177 303.3937  56.6822 14.98728256 71514,6948.962,96.081,573.729,567.924,0.0
55925.0,STARLINK-5922,PAYLOAD,2024-07-02 09:26:54,14.98325793,0.0003227,69.9995,55.7599,265.0503,95.0288,0.00050748,5.967e-05,0.0,0 STARLINK-5922,1 55925U 23037M   24184.39368542  .00005967  00000-0  50748-3 0  9994,2 55925  69.9995  55.7599 0003227 265.0503  95.0288 14.98325793 71326,6950.206,96.107,574.314,569.828,0.0
55925.0,STARLINK-5922,PAYLOAD,2024-07-02 19:03:43,14.98332825,0.0003294,69.9993,54.7509,267.7219,92.3562,-9.8211e-05,-1.265e-05,0.0,0 STARLINK-5922,1 55925U 23037M   24184.79425291 -.00001265  00000-0 -98211-4 0  9990,2 55925  69.9993  54.7509 0003294 267.7219  92.3562 14.98332825 71724,6950.184,96.107,574.339,569.76,0.0
55925.0,STARLINK-5922,PAYLOAD,2024-07-03 01:28:15,14.98397118,0.0003195,69.9992,54.0763,270.8517,89.2276,-0.00098842,-0.00011887,0.0,0 STARLINK-5922,1 55925U 23037M   24185.06129112 -.00011887  00000-0 -98842-3 0  9994,2 55925  69.9992  54.0763 0003195 270.8517  89.2276 14.98397118 71761,6949.985,96.103,574.071,569.63,0.0
55925.0,STARLINK-5922,PAYLOAD,2024-07-03 20:41:50,14.98373634,0.0003236,69.9992,52.0568,269.8642,90.2146,-0.00069704,-8.41e-05,0.0,0 STARLINK-5922,1 55925U 23037M   24185.86239092 -.00008410  00000-0 -69704-3 0  9994,2 55925  69.9992  52.0568 0003236 269.8642  90.2146 14.98373634 71883,6950.058,96.104,574.172,569.674,0.0
55925.0,STARLINK-5922,PAYLOAD,2024-07-03 22:17:59,14.98328745,0.0003045,69.9992,51.8888,267.9717,92.1093,0.00011393,1.267e-05,0.0,0 STARLINK-5922,1 55925U 23037M   24185.92916217  .00001267  00000-0  11393-3 0  9994,2 55925  69.9992  51.8888 0003045 267.9717  92.1093 14.98328745 71554,6950.197,96.107,574.178,569.945,0.0
55925.0,STARLINK-5922,PAYLOAD,2024-07-04 01:30:15,14.98333188,0.0003065,69.9992,51.5522,268.4708,91.61,0.00016465,1.872e-05,0.0,0 STARLINK-5922,1 55925U 23037M   24186.06267810  .00001872  00000-0  16465-3 0  9995,2 55925  69.9992  51.5522 0003065 268.4708  91.6100 14.98333188 71914,6950.183,96.107,574.178,569.918,0.0
55925.0,STARLINK-5922,PAYLOAD,2024-07-04 07:54:48,14.98288957,0.0003028,69.9998,50.8796,263.9777,96.1037,0.00074291,8.773e-05,0.0,0 STARLINK-5922,1 55925U 23037M   24186.32972538  .00008773  00000-0  74291-3 0  9992,2 55925  69.9998  50.8796 0003028 263.9777  96.1037 14.98288957 71956,6950.32,96.11,574.289,570.08,0.0
55925.0,STARLINK-5922,PAYLOAD,2024-07-04 20:43:51,14.98336779,0.0003228,70.0001,49.5332,263.7915,96.2877,0.00024628,2.847e-05,0.0,0 STARLINK-5922,1 55925U 23037M   24186.86379298  .00002847  00000-0  24628-3 0  9990,2 55925  70.0001  49.5332 0003228 263.7915  96.2877 14.98336779 72038,6950.172,96.107,574.28,569.793,0.0
55925.0,STARLINK-5922,PAYLOAD,2024-07-04 22:19:59,14.98341673,0.0002836,70.0002,49.3648,262.042,98.0417,0.00023714,2.738e-05,0.0,0 STARLINK-5922,1 55925U 23037M   24186.93055027  .00002738  00000-0  23714-3 0  9993,2 55925  70.0002  49.3648 0002836 262.0420  98.0417 14.98341673 71706,6950.157,96.106,573.993,570.051,0.0
55925.0,STARLINK-5922,PAYLOAD,2024-07-05 07:56:48,14.98336313,0.0002912,70.0005,48.3555,266.7099,93.3727,9.845e-05,1.082e-05,0.0,0 STARLINK-5922,1 55925U 23037M   24187.33111441  .00001082  00000-0  98450-4 0  9992,2 55925  70.0005  48.3555 0002912 266.7099  93.3727 14.98336313 71766,6950.173,96.107,574.062,570.014,0.0
55925.0,STARLINK-5922,PAYLOAD,2024-07-05 20:45:53,14.98322222,0.0002759,70.0007,47.0099,268.0688,92.0155,-5.4544e-05,-7.44e-06,0.0,0 STARLINK-5922,1 55925U 23037M   24187.86520808 -.00000744  00000-0 -54544-4 0  9993,2 55925  70.0007  47.0099 0002759 268.0688  92.0155 14.98322222 72187,6950.217,96.107,574.0,570.164,0.0
